[{"OBJECT_NAME":"STARLINK-34010","OBJECT_ID":"2025-093N","EPOCH":"2026-03-09T10:27:28.056096","MEAN_MOTION":15.27594806,"ECCENTRICITY":0.00023294,"INCLINATION":43.0039,"RA_OF_ASC_NODE":79.3094,"ARG_OF_PERICENTER":290.9216,"MEAN_ANOMALY":69.1387,"EPHEMERIS_TYPE":0,"CLASSIFICATION_TYPE":"U","NORAD_CAT_ID":63848,"ELEMENT_SET_NO":999,"REV_AT_EPOCH":4771,"BSTAR":0.00098401627,"MEAN_MOTION_DOT":0.00026928,"MEAN_MOTION_DDOT":0},{"OBJECT_NAME":"CZ-4C DEB","OBJECT_ID":"2015-069C","EPOCH":"2026-03-07T10:00:21.558816","MEAN_MOTION":15.31048021,"ECCENTRICITY":0.00583916,"INCLINATION":97.4862,"RA_OF_ASC_NODE":135.8649,"ARG_OF_PERICENTER":162.5456,"MEAN_ANOMALY":197.781,"EPHEMERIS_TYPE":0,"CLASSIFICATION_TYPE":"U","NORAD_CAT_ID":42670,"ELEMENT_SET_NO":999,"REV_AT_EPOCH":51749,"BSTAR":0.00045809658,"MEAN_MOTION_DOT":0.00014416,"MEAN_MOTION_DDOT":0}]
